     2.100          NAVIGATION                              RINEX VERSION / TYPE
fic2rin                                 11/01/2017 00:14:58 PGM / RUN BY / DATE
                                                            END OF HEADER
30 17 10 31 18  0  0.0  .131117645651D-03 -.250111042988D-11  .000000000000D+00
     .170000000000D+02  .821875000000D+01  .527307678767D-08 -.209263771597D+01
     .350177288055D-06  .302349065896D-02  .331737101078D-05  .515360498428D+04
     .237600000000D+06 -.204890966415D-07 -.208046259342D+01 -.931322574615D-08
     .946229631771D+00  .307906250000D+03 -.305313519508D+01 -.862000191482D-08
    -.111076055335D-09  .100000000000D+01  .197300000000D+04  .000000000000D+00
     .240000000000D+01  .000000000000D+00  .372529029846D-08  .170000000000D+02
     .230406000000D+06  .400000000000D+01
31 17 10 31 18  0  0.0  .165168195963D-03 -.261479726760D-11  .000000000000D+00
     .480000000000D+02  .981250000000D+01  .481877214977D-08 -.233443456099D+01
     .493600964546D-06  .869865168352D-02  .381842255592D-05  .515354208374D+04
     .237600000000D+06 -.186264514923D-06 -.210546923670D+01 -.540167093277D-07
     .965267787255D+00  .311250000000D+03 -.231177506591D+00 -.836749139675D-08
    -.120362156424D-09  .100000000000D+01  .197300000000D+04  .000000000000D+00
     .240000000000D+01  .000000000000D+00 -.135041773319D-07  .480000000000D+02
     .230406000000D+06  .400000000000D+01
32 17 10 31 18  0  0.0 -.519095920026D-03 -.375166564481D-11  .000000000000D+00
     .151000000000D+03  .678750000000D+02  .459483425043D-08  .140255421429D+01
     .353343784809D-05  .148140219972D-02  .101048499346D-04  .515360535240D+04
     .237600000000D+06 -.204890966415D-07  .309185971189D+01  .726431608200D-07
     .958042472897D+00  .183500000000D+03 -.260174577987D+01 -.810533761985D-08
     .233938315898D-09  .100000000000D+01  .197300000000D+04  .000000000000D+00
     .340000000000D+01  .000000000000D+00  .465661287308D-09  .151000000000D+03
     .230406000000D+06  .400000000000D+01
 6 17 10 31 17 59 44.0  .407571904361D-03  .193267624127D-11  .000000000000D+00
     .580000000000D+02 -.950000000000D+01  .488698927701D-08 -.119040938601D+01
    -.508502125740D-06  .592258642428D-03  .372529029846D-05  .515376865959D+04
     .237584000000D+06 -.391155481339D-07  .100162660314D+01  .204890966415D-07
     .968459732601D+00  .314375000000D+03 -.125083275226D+01 -.841856495274D-08
     .113219001740D-09  .100000000000D+01  .197300000000D+04  .000000000000D+00
     .240000000000D+01  .000000000000D+00  .465661287308D-08  .580000000000D+02
     .231456000000D+06  .400000000000D+01
 9 17 10 31 17 59 44.0  .465529970825D-03  .511590769747D-11  .000000000000D+00
     .110000000000D+02  .723750000000D+02  .462804991971D-08  .961905986880D+00
     .367313623428D-05  .950706657022D-03  .106990337372D-04  .515375104332D+04
     .237584000000D+06  .111758708954D-07  .308789518487D+01 -.204890966415D-07
     .953596778962D+00  .168125000000D+03  .178404759951D+01 -.807533637017D-08
     .315013121561D-09  .100000000000D+01  .197300000000D+04  .000000000000D+00
     .240000000000D+01  .000000000000D+00  .931322574615D-09  .110000000000D+02
     .231456000000D+06  .400000000000D+01
32 17 10 31 17 59 44.0 -.519095920026D-03 -.375166564481D-11  .000000000000D+00
     .140000000000D+02  .678750000000D+02  .459483425043D-08  .140022613816D+01
     .353343784809D-05  .148140999954D-02  .101048499346D-04  .515360534668D+04
     .237584000000D+06 -.204890966415D-07  .309185985233D+01  .726431608200D-07
     .958042472897D+00  .183500000000D+03 -.260175147940D+01 -.810533761985D-08
     .233938315898D-09  .100000000000D+01  .197300000000D+04  .000000000000D+00
     .240000000000D+01  .000000000000D+00  .465661287308D-09  .140000000000D+02
     .235476000000D+06  .400000000000D+01
17 17 10 31 17 59 44.0 -.147537793964D-03  .227373675443D-11  .000000000000D+00
     .160000000000D+02  .533437500000D+02  .398123726308D-08  .729134135112D+00
     .274553894997D-05  .120460186154D-01  .100061297417D-04  .515371058083D+04
     .237584000000D+06 -.139698386192D-06  .615910894018D-02 -.242143869400D-07
     .981586481897D+00  .196718750000D+03 -.183630964862D+01 -.805819279893D-08
     .412874340731D-09  .100000000000D+01  .197300000000D+04  .000000000000D+00
     .240000000000D+01  .000000000000D+00 -.111758708954D-07  .160000000000D+02
     .235626000000D+06  .400000000000D+01
 4 17 10 31 18  0  0.0  .601452775300D-04  .966338120634D-11  .000000000000D+00
     .570000000000D+02  .472187500000D+02  .443589905872D-08  .970352886110D+00
     .248849391937D-05  .124578708783D-01  .972487032413D-05  .515367017555D+04
     .237600000000D+06 -.106170773506D-06 -.137094724306D+00  .204890966415D-06
     .957638826004D+00  .191843750000D+03  .447760016396D+00 -.812748139937D-08
     .198936857947D-09  .100000000000D+01  .197300000000D+04  .000000000000D+00
     .240000000000D+01  .630000000000D+02 -.558793544769D-08  .570000000000D+02
     .237426000000D+06  .400000000000D+01
 6 17 10 31 19 59 44.0  .407586339861D-03  .193267624127D-11  .000000000000D+00
     .590000000000D+02 -.890625000000D+01  .479877131666D-08 -.139964924227D+00
    -.650063157082D-06  .592723954469D-03  .367686152458D-05  .515376957512D+04
     .244784000000D+06 -.391155481339D-07  .100156600030D+01  .372529029846D-08
     .968460543058D+00  .310437500000D+03 -.125115211313D+01 -.841999358367D-08
     .107504477993D-09  .100000000000D+01  .197300000000D+04  .000000000000D+00
     .240000000000D+01  .000000000000D+00  .465661287308D-08  .590000000000D+02
     .237606000000D+06  .400000000000D+01
 9 17 10 31 19 59 44.0  .465566292405D-03  .511590769747D-11  .000000000000D+00
     .120000000000D+02  .744687500000D+02  .463412160119D-08  .201140059205D+01
     .379979610443D-05  .950688612647D-03  .104438513517D-04  .515375218010D+04
     .244784000000D+06 -.186264514923D-07  .308783697390D+01  .204890966415D-07
     .953598939692D+00  .172062500000D+03  .178468717120D+01 -.809033699501D-08
     .304298389535D-09  .100000000000D+01  .197300000000D+04  .000000000000D+00
     .240000000000D+01  .000000000000D+00  .931322574615D-09  .120000000000D+02
     .237606000000D+06  .400000000000D+01
17 17 10 31 19 59 44.0 -.147521030158D-03  .227373675443D-11  .000000000000D+00
     .170000000000D+02  .563750000000D+02  .387194699642D-08  .177931180892D+01
     .282377004623D-05  .120458198944D-01  .989064574242D-05  .515370997620D+04
     .244784000000D+06 -.186264514923D-07  .610102524076D-02 -.316649675369D-06
     .981590832615D+00  .197187500000D+03 -.183633239553D+01 -.779603902203D-08
     .510021244432D-09  .100000000000D+01  .197300000000D+04  .000000000000D+00
     .240000000000D+01  .000000000000D+00 -.111758708954D-07  .170000000000D+02
     .237606000000D+06  .400000000000D+01
32 17 10 31 19 59 44.0 -.519122928381D-03 -.375166564481D-11  .000000000000D+00
     .150000000000D+02  .645625000000D+02  .451054502516D-08  .245017122994D+01
     .339373946190D-05  .148154119961D-02  .102594494820D-04  .515360598183D+04
     .244784000000D+06 -.558793544769D-07  .309180135316D+01 -.502914190292D-07
     .958044888175D+00  .180187500000D+03 -.260147386583D+01 -.798640409436D-08
     .306441335940D-09  .100000000000D+01  .197300000000D+04  .000000000000D+00
     .240000000000D+01  .000000000000D+00  .465661287308D-09  .150000000000D+02
     .237606000000D+06  .400000000000D+01
 1 17 10 31 20  0  0.0 -.752275809646D-05 -.238742359215D-11  .000000000000D+00
     .650000000000D+02 -.163125000000D+02  .481341478376D-08 -.413325948662D+00
    -.726431608200D-06  .709070276935D-02  .386498868465D-05  .515367212296D+04
     .244800000000D+06  .577419996262D-07  .100991744558D+01  .484287738800D-07
     .968705805662D+00  .309625000000D+03  .633213857499D+00 -.846570977365D-08
     .103218585183D-09  .100000000000D+01  .197300000000D+04  .000000000000D+00
     .240000000000D+01  .000000000000D+00  .558793544769D-08  .650000000000D+02
     .237606000000D+06  .400000000000D+01
 2 17 10 31 20  0  0.0  .292482785881D-03 -.954969436862D-11  .000000000000D+00
     .910000000000D+02  .156250000000D+01  .539058168222D-08  .113872533877D-01
     .279396772385D-07  .172141985968D-01  .374019145966D-05  .515360421371D+04
     .244800000000D+06 -.236555933952D-06  .953177818242D+00  .230967998505D-06
     .947734803313D+00  .304562500000D+03 -.194374271993D+01 -.896001607778D-08
     .159292349451D-09  .100000000000D+01  .197300000000D+04  .000000000000D+00
     .240000000000D+01  .000000000000D+00 -.204890966415D-07  .910000000000D+02
     .237606000000D+06  .400000000000D+01
 3 17 10 31 20  0  0.0 -.485363416374D-04  .522959453519D-11  .000000000000D+00
     .620000000000D+02 -.579375000000D+02  .463840749400D-08 -.146509807883D+01
    -.305287539959D-05  .108569243457D-02  .100079923868D-04  .515362835312D+04
     .244800000000D+06  .279396772385D-07  .205297460117D+01  .111758708954D-07
     .960103101268D+00  .187375000000D+03  .569884847751D+00 -.805533553706D-08
    -.271797035723D-09  .100000000000D+01  .197300000000D+04  .000000000000D+00
     .240000000000D+01  .000000000000D+00  .232830643654D-08  .620000000000D+02
     .237606000000D+06  .400000000000D+01
 4 17 10 31 20  0  0.0  .602141954005D-04  .966338120634D-11  .000000000000D+00
     .580000000000D+02  .368125000000D+02  .431125100948D-08  .202035033865D+01
     .194273889065D-05  .124581226846D-01  .103358179331D-04  .515367451096D+04
     .244800000000D+06 -.286847352982D-06 -.137153578963D+00  .912696123123D-07
     .957640558099D+00  .179125000000D+03  .447943460472D+00 -.803640617715D-08
     .275725770799D-09  .100000000000D+01  .197300000000D+04  .000000000000D+00
     .240000000000D+01  .630000000000D+02 -.558793544769D-08  .580000000000D+02
     .237606000000D+06  .400000000000D+01
